{
  "type": "FeatureCollection",
  "features": [
    {
      "type": "Feature",
      "properties": {
        "norad_id": 29985,
        "name": "FENGYUN 1C DEB",
        "group": "fengyun-1c-debris",
        "lat": 24.571112411221367,
        "lon": 177.3017734401946,
        "alt_km": 853.8466775502029,
        "timestamp": "2025-12-03T22:42:32.908507+00:00",
        "meta_object_name": "FENGYUN 1C DEB",
        "meta_object_id": "1999-025LK",
        "meta_epoch": "2025-12-03T12:29:07.625760",
        "meta_mean_motion": 14.10320919,
        "meta_eccentricity": 0.002774,
        "meta_inclination": 98.7111,
        "meta_ra_of_asc_node": 352.8694,
        "meta_arg_of_pericenter": 235.7885,
        "meta_mean_anomaly": 277.9496,
        "meta_ephemeris_type": 0,
        "meta_classification_type": "U",
        "meta_norad_cat_id": 29985,
        "meta_element_set_no": 999,
        "meta_rev_at_epoch": 97218,
        "meta_bstar": 9.6558e-05,
        "meta_mean_motion_dot": 1.29e-06,
        "meta_mean_motion_ddot": 0,
        "tle_line1": "1 29985U 99025LK  25337.52022715  .00000129  00000+0  96558-4 0  9990",
        "tle_line2": "2 29985  98.7111 352.8694 0027740 235.7885 277.9496 14.10320919972188"
      },
      "geometry": {
        "type": "Point",
        "coordinates": [
          177.3017734401946,
          24.571112411221367
        ]
      }
    },
    {
      "type": "Feature",
      "properties": {
        "norad_id": 29986,
        "name": "FENGYUN 1C DEB",
        "group": "fengyun-1c-debris",
        "lat": -70.19892376428814,
        "lon": -162.46240654894072,
        "alt_km": 813.047976636055,
        "timestamp": "2025-12-03T22:42:32.908516+00:00",
        "meta_object_name": "FENGYUN 1C DEB",
        "meta_object_id": "1999-025LL",
        "meta_epoch": "2025-12-03T10:03:50.255424",
        "meta_mean_motion": 14.29097486,
        "meta_eccentricity": 0.0022986,
        "meta_inclination": 99.4005,
        "meta_ra_of_asc_node": 44.365,
        "meta_arg_of_pericenter": 26.3067,
        "meta_mean_anomaly": 37.1685,
        "meta_ephemeris_type": 0,
        "meta_classification_type": "U",
        "meta_norad_cat_id": 29986,
        "meta_element_set_no": 999,
        "meta_rev_at_epoch": 97374,
        "meta_bstar": 0.0022239,
        "meta_mean_motion_dot": 5.606e-05,
        "meta_mean_motion_ddot": 0,
        "tle_line1": "1 29986U 99025LL  25337.41933166  .00005606  00000+0  22239-2 0  9998",
        "tle_line2": "2 29986  99.4005  44.3650 0022986  26.3067  37.1685 14.29097486973746"
      },
      "geometry": {
        "type": "Point",
        "coordinates": [
          -162.46240654894072,
          -70.19892376428814
        ]
      }
    },
    {
      "type": "Feature",
      "properties": {
        "norad_id": 29987,
        "name": "FENGYUN 1C DEB",
        "group": "fengyun-1c-debris",
        "lat": -45.89563626387173,
        "lon": -120.7378996959774,
        "alt_km": 816.8266804130753,
        "timestamp": "2025-12-03T22:42:32.908526+00:00",
        "meta_object_name": "FENGYUN 1C DEB",
        "meta_object_id": "1999-025LM",
        "meta_epoch": "2025-12-03T04:58:36.797376",
        "meta_mean_motion": 14.14391637,
        "meta_eccentricity": 0.00807422,
        "meta_inclination": 98.8977,
        "meta_ra_of_asc_node": 229.2247,
        "meta_arg_of_pericenter": 261.1194,
        "meta_mean_anomaly": 251.6268,
        "meta_ephemeris_type": 0,
        "meta_classification_type": "U",
        "meta_norad_cat_id": 29987,
        "meta_element_set_no": 999,
        "meta_rev_at_epoch": 96238,
        "meta_bstar": 0.003531629,
        "meta_mean_motion_dot": 6.934e-05,
        "meta_mean_motion_ddot": 0,
        "tle_line1": "1 29987U 99025LM  25337.20737034  .00006934  00000+0  35316-2 0  9997",
        "tle_line2": "2 29987  98.8977 229.2247 0080742 261.1194 251.6268 14.14391637962385"
      },
      "geometry": {
        "type": "Point",
        "coordinates": [
          -120.7378996959774,
          -45.89563626387173
        ]
      }
    },
    {
      "type": "Feature",
      "properties": {
        "norad_id": 29988,
        "name": "FENGYUN 1C DEB",
        "group": "fengyun-1c-debris",
        "lat": -75.61447963303175,
        "lon": 118.20220240697687,
        "alt_km": 779.1849676226775,
        "timestamp": "2025-12-03T22:42:32.908535+00:00",
        "meta_object_name": "FENGYUN 1C DEB",
        "meta_object_id": "1999-025LN",
        "meta_epoch": "2025-12-03T06:36:35.055936",
        "meta_mean_motion": 14.50182712,
        "meta_eccentricity": 0.0121219,
        "meta_inclination": 98.6966,
        "meta_ra_of_asc_node": 80.8716,
        "meta_arg_of_pericenter": 47.1114,
        "meta_mean_anomaly": 335.5328,
        "meta_ephemeris_type": 0,
        "meta_classification_type": "U",
        "meta_norad_cat_id": 29988,
        "meta_element_set_no": 999,
        "meta_rev_at_epoch": 97930,
        "meta_bstar": 0.0020204,
        "meta_mean_motion_dot": 8.589e-05,
        "meta_mean_motion_ddot": 0,
        "tle_line1": "1 29988U 99025LN  25337.27540574  .00008589  00000+0  20204-2 0  9994",
        "tle_line2": "2 29988  98.6966  80.8716 0121219  47.1114 335.5328 14.50182712979304"
      },
      "geometry": {
        "type": "Point",
        "coordinates": [
          118.20220240697687,
          -75.61447963303175
        ]
      }
    },
    {
      "type": "Feature",
      "properties": {
        "norad_id": 29989,
        "name": "FENGYUN 1C DEB",
        "group": "fengyun-1c-debris",
        "lat": -30.226916649327148,
        "lon": 131.8753130524994,
        "alt_km": 758.2427703537933,
        "timestamp": "2025-12-03T22:42:32.908544+00:00",
        "meta_object_name": "FENGYUN 1C DEB",
        "meta_object_id": "1999-025LP",
        "meta_epoch": "2025-12-03T10:27:54.374400",
        "meta_mean_motion": 14.1580949,
        "meta_eccentricity": 0.0122818,
        "meta_inclination": 98.6668,
        "meta_ra_of_asc_node": 316.4775,
        "meta_arg_of_pericenter": 222.4419,
        "meta_mean_anomaly": 269.496,
        "meta_ephemeris_type": 0,
        "meta_classification_type": "U",
        "meta_norad_cat_id": 29989,
        "meta_element_set_no": 999,
        "meta_rev_at_epoch": 97479,
        "meta_bstar": 0.00023329,
        "meta_mean_motion_dot": 4.5e-06,
        "meta_mean_motion_ddot": 0,
        "tle_line1": "1 29989U 99025LP  25337.43604600  .00000450  00000+0  23329-3 0  9995",
        "tle_line2": "2 29989  98.6668 316.4775 0122818 222.4419 269.4960 14.15809490974794"
      },
      "geometry": {
        "type": "Point",
        "coordinates": [
          131.8753130524994,
          -30.226916649327148
        ]
      }
    },
    {
      "type": "Feature",
      "properties": {
        "norad_id": 29992,
        "name": "FENGYUN 1C DEB",
        "group": "fengyun-1c-debris",
        "lat": -26.816585890163672,
        "lon": 148.8636825660757,
        "alt_km": 797.5735743890946,
        "timestamp": "2025-12-03T22:42:32.908553+00:00",
        "meta_object_name": "FENGYUN 1C DEB",
        "meta_object_id": "1999-025LS",
        "meta_epoch": "2025-12-03T12:08:27.039264",
        "meta_mean_motion": 14.11606317,
        "meta_eccentricity": 0.0088407,
        "meta_inclination": 98.7297,
        "meta_ra_of_asc_node": 332.8899,
        "meta_arg_of_pericenter": 193.8655,
        "meta_mean_anomaly": 296.44,
        "meta_ephemeris_type": 0,
        "meta_classification_type": "U",
        "meta_norad_cat_id": 29992,
        "meta_element_set_no": 999,
        "meta_rev_at_epoch": 97257,
        "meta_bstar": 0.00014145,
        "meta_mean_motion_dot": 2.24e-06,
        "meta_mean_motion_ddot": 0,
        "tle_line1": "1 29992U 99025LS  25337.50586851  .00000224  00000+0  14145-3 0  9999",
        "tle_line2": "2 29992  98.7297 332.8899 0088407 193.8655 296.4400 14.11606317972576"
      },
      "geometry": {
        "type": "Point",
        "coordinates": [
          148.8636825660757,
          -26.816585890163672
        ]
      }
    },
    {
      "type": "Feature",
      "properties": {
        "norad_id": 29993,
        "name": "FENGYUN 1C DEB",
        "group": "fengyun-1c-debris",
        "lat": -78.06946993876969,
        "lon": 62.01802948064031,
        "alt_km": 859.6653652542855,
        "timestamp": "2025-12-03T22:42:32.908562+00:00",
        "meta_object_name": "FENGYUN 1C DEB",
        "meta_object_id": "1999-025LT",
        "meta_epoch": "2025-12-03T09:27:09.169632",
        "meta_mean_motion": 14.08143652,
        "meta_eccentricity": 0.0038854,
        "meta_inclination": 98.7947,
        "meta_ra_of_asc_node": 14.367,
        "meta_arg_of_pericenter": 341.4845,
        "meta_mean_anomaly": 18.4909,
        "meta_ephemeris_type": 0,
        "meta_classification_type": "U",
        "meta_norad_cat_id": 29993,
        "meta_element_set_no": 999,
        "meta_rev_at_epoch": 97038,
        "meta_bstar": 0.00020573,
        "meta_mean_motion_dot": 3.1e-06,
        "meta_mean_motion_ddot": 0,
        "tle_line1": "1 29993U 99025LT  25337.39385613  .00000310  00000+0  20573-3 0  9998",
        "tle_line2": "2 29993  98.7947  14.3670 0038854 341.4845  18.4909 14.08143652970388"
      },
      "geometry": {
        "type": "Point",
        "coordinates": [
          62.01802948064031,
          -78.06946993876969
        ]
      }
    }
  ]
}